[{"OBJECT_NAME":"STARLINK-31121","OBJECT_ID":"2023-211U","EPOCH":"2026-03-09T11:01:09.708096","MEAN_MOTION":15.27644877,"ECCENTRICITY":0.00011028,"INCLINATION":42.9995,"RA_OF_ASC_NODE":86.2025,"ARG_OF_PERICENTER":209.0829,"MEAN_ANOMALY":150.9962,"EPHEMERIS_TYPE":0,"CLASSIFICATION_TYPE":"U","NORAD_CAT_ID":58685,"ELEMENT_SET_NO":999,"REV_AT_EPOCH":12243,"BSTAR":-0.0006483732,"MEAN_MOTION_DOT":-0.00018096,"MEAN_MOTION_DDOT":0},{"OBJECT_NAME":"OTTER","OBJECT_ID":"2025-009Q","EPOCH":"2026-03-09T17:21:07.902432","MEAN_MOTION":15.27809545,"ECCENTRICITY":0.00035728,"INCLINATION":97.4065,"RA_OF_ASC_NODE":151.3812,"ARG_OF_PERICENTER":310.771,"MEAN_ANOMALY":49.3219,"EPHEMERIS_TYPE":0,"CLASSIFICATION_TYPE":"U","NORAD_CAT_ID":62623,"ELEMENT_SET_NO":999,"REV_AT_EPOCH":6372,"BSTAR":0.00045151206,"MEAN_MOTION_DOT":0.00012198,"MEAN_MOTION_DDOT":0}]
